NORAD_CAT_ID,OBJECT_NAME,OBJECT_TYPE,EPOCH,MEAN_MOTION,ECCENTRICITY,INCLINATION,RA_OF_ASC_NODE,ARG_OF_PERICENTER,MEAN_ANOMALY,BSTAR,MEAN_MOTION_DOT,MEAN_MOTION_DDOT,TLE_LINE0,TLE_LINE1,TLE_LINE2,SEMIMAJOR_AXIS,PERIOD,APOGEE,PERIGEE,DECAYED
53700.0,STARLINK-4725,PAYLOAD,2023-05-06 12:56:14,15.0885001,9.73e-05,53.2161,224.1888,82.0292,278.0811,5.1814e-05,5.37e-06,0.0,0 STARLINK-4725,1 53700U 22107A   23126.53905244  .00000537  00000-0  51814-4 0  9991,2 53700  53.2161 224.1888 0000973  82.0292 278.0811 15.08850010 38130,6917.85,95.437,540.388,539.042,0.0
53700.0,STARLINK-4725,PAYLOAD,2023-05-07 00:03:55,15.08851145,9.12e-05,53.2162,222.1073,75.02,285.0893,6.806e-05,7.96e-06,0.0,0 STARLINK-4725,1 53700U 22107A   23127.00272804  .00000796  00000-0  68060-4 0  9991,2 53700  53.2162 222.1073 0000912  75.0200 285.0893 15.08851145 37451,6917.846,95.437,540.342,539.08,0.0
53700.0,STARLINK-4725,PAYLOAD,2023-05-07 12:47:01,15.08839029,9.87e-05,53.2166,219.7287,66.9284,293.1812,8.5084e-06,-1.52e-06,0.0,0 STARLINK-4725,1 53700U 22107A   23127.53265722 -.00000152  00000-0  85084-5 0  9993,2 53700  53.2166 219.7287 0000987  66.9284 293.1812 15.08839029 37534,6917.883,95.438,540.431,539.066,0.0
53700.0,STARLINK-4725,PAYLOAD,2023-05-08 12:37:48,15.08839571,9.85e-05,53.2159,215.2681,96.7745,263.3359,-9.1671e-05,-1.746e-05,0.0,0 STARLINK-4725,1 53700U 22107A   23128.52625957 -.00001746  00000-0 -91671-4 0  9992,2 53700  53.2159 215.2681 0000985  96.7745 263.3359 15.08839571 38433,6917.882,95.438,540.428,539.065,0.0
53700.0,STARLINK-4725,PAYLOAD,2023-05-09 12:28:35,15.08799545,0.000118,53.216,210.8068,100.0303,260.0822,0.00052685,8.098e-05,0.0,0 STARLINK-4725,1 53700U 22107A   23129.51985970  .00008098  00000-0  52685-3 0  9992,2 53700  53.2160 210.8068 0001180 100.0303 260.0822 15.08799545 38583,6918.004,95.44,540.685,539.053,0.0
53700.0,STARLINK-4725,PAYLOAD,2023-05-10 10:44:00,15.08828154,0.0001097,53.2163,206.6452,109.8246,250.2864,-2.7259e-06,-3.31e-06,0.0,0 STARLINK-4725,1 53700U 22107A   23130.44722725 -.00000331  00000-0 -27259-5 0  9998,2 53700  53.2163 206.6452 0001097 109.8246 250.2864 15.08828154 38728,6917.917,95.438,540.54,539.023,0.0
53700.0,STARLINK-4725,PAYLOAD,2023-05-10 13:54:46,15.08829664,0.0001198,53.2167,206.0491,111.6583,248.4537,3.1953e-05,2.21e-06,0.0,0 STARLINK-4725,1 53700U 22107A   23130.57970512  .00000221  00000-0  31953-4 0  9992,2 53700  53.2167 206.0491 0001198 111.6583 248.4537 15.08829664 38741,6917.912,95.438,540.606,538.948,0.0
53700.0,STARLINK-4725,PAYLOAD,2023-05-10 21:51:41,15.08838428,0.0001043,53.2164,204.5622,95.0189,265.0922,3.0386e-05,1.96e-06,0.0,0 STARLINK-4725,1 53700U 22107A   23130.91090108  .00000196  00000-0  30386-4 0  9994,2 53700  53.2164 204.5622 0001043  95.0189 265.0922 15.08838428 38047,6917.885,95.438,540.472,539.029,0.0
53700.0,STARLINK-4725,PAYLOAD,2023-05-11 10:34:47,15.08841892,0.0001007,53.2163,202.1827,95.159,264.9517,-4.0155e-05,-9.27e-06,0.0,0 STARLINK-4725,1 53700U 22107A   23131.44082281 -.00000927  00000-0 -40155-4 0  9995,2 53700  53.2163 202.1827 0001007  95.1590 264.9517 15.08841892 38872,6917.875,95.437,540.436,539.043,0.0
53700.0,STARLINK-4725,PAYLOAD,2023-05-11 12:10:10,15.08843304,0.0001017,53.2164,201.8853,94.2048,265.906,-2.6827e-05,-7.15e-06,0.0,0 STARLINK-4725,1 53700U 22107A   23131.50706142 -.00000715  00000-0 -26827-4 0  9996,2 53700  53.2164 201.8853 0001017  94.2048 265.9060 15.08843304 38882,6917.87,95.437,540.439,539.032,0.0
53700.0,STARLINK-4725,PAYLOAD,2023-05-11 21:42:28,15.08843606,0.0001158,53.2169,200.0999,80.8218,279.2905,-2.0942e-06,-3.21e-06,0.0,0 STARLINK-4725,1 53700U 22107A   23131.90449991 -.00000321  00000-0 -20942-5 0  9992,2 53700  53.2169 200.0999 0001158  80.8218 279.2905 15.08843606 38943,6917.869,95.437,540.535,538.933,0.0
53700.0,STARLINK-4725,PAYLOAD,2023-05-12 08:50:11,15.08830013,0.0001194,53.2168,198.0191,82.4318,277.681,2.6175e-05,1.29e-06,0.0,0 STARLINK-4725,1 53700U 22107A   23132.36818934  .00000129  00000-0  26175-4 0  9997,2 53700  53.2168 198.0191 0001194  82.4318 277.6810 15.08830013 38261,6917.911,95.438,540.602,538.95,0.0
53700.0,STARLINK-4725,PAYLOAD,2023-05-13 11:51:44,15.08839061,0.0001344,53.217,192.9622,76.9224,283.1918,-2.2066e-05,-6.39e-06,0.0,0 STARLINK-4725,1 53700U 22107A   23133.49426804 -.00000639  00000-0 -22066-4 0  9996,2 53700  53.2170 192.9622 0001344  76.9224 283.1918 15.08839061 38439,6917.883,95.438,540.678,538.818,0.0
53700.0,STARLINK-4725,PAYLOAD,2023-05-14 13:17:54,15.08836958,0.000118,53.2161,188.2037,84.5257,275.587,1.6975e-05,-1.8e-07,0.0,0 STARLINK-4725,1 53700U 22107A   23134.55410875 -.00000018  00000-0  16975-4 0  9997,2 53700  53.2161 188.2037 0001180  84.5257 275.5870 15.08836958 38597,6917.89,95.438,540.571,538.938,0.0
53700.0,STARLINK-4725,PAYLOAD,2023-05-15 09:57:55,15.08839686,0.0001158,53.2159,184.338,92.7246,267.3878,3.7477e-05,3.09e-06,0.0,0 STARLINK-4725,1 53700U 22107A   23135.41522652  .00000309  00000-0  37477-4 0  9992,2 53700  53.2159 184.3380 0001158  92.7246 267.3878 15.08839686 39472,6917.881,95.438,540.547,538.945,0.0
53700.0,STARLINK-4725,PAYLOAD,2023-05-15 13:08:41,15.08839843,0.0001167,53.2159,183.7435,92.1136,267.999,3.7472e-05,3.09e-06,0.0,0 STARLINK-4725,1 53700U 22107A   23135.54770639  .00000309  00000-0  37472-4 0  9991,2 53700  53.2159 183.7435 0001167  92.1136 267.9990 15.08839843 39496,6917.881,95.438,540.553,538.939,0.0
53700.0,STARLINK-4725,PAYLOAD,2023-05-16 06:37:56,15.08835942,0.0001122,53.2154,180.4721,90.8988,269.2132,-1.7846e-05,-5.72e-06,0.0,0 STARLINK-4725,1 53700U 22107A   23136.27635173 -.00000572  00000-0 -17846-4 0  9992,2 53700  53.2154 180.4721 0001122  90.8988 269.2132 15.08835942 38852,6917.893,95.438,540.534,538.982,0.0
53700.0,STARLINK-4725,PAYLOAD,2023-05-16 09:48:43,15.08836713,0.0001137,53.2156,179.8773,90.9605,269.1517,-9.8374e-06,-4.44e-06,0.0,0 STARLINK-4725,1 53700U 22107A   23136.40883113 -.00000444  00000-0 -98374-5 0  9990,2 53700  53.2156 179.8773 0001137  90.9605 269.1517 15.08836713 39625,6917.89,95.438,540.542,538.969,0.0
53700.0,STARLINK-4725,PAYLOAD,2023-05-16 19:21:01,15.08836887,0.0001151,53.2157,178.0935,90.2333,269.8791,-1.115e-05,-4.65e-06,0.0,0 STARLINK-4725,1 53700U 22107A   23136.80627150 -.00000465  00000-0 -11150-4 0  9990,2 53700  53.2157 178.0935 0001151  90.2333 269.8791 15.08836887 39683,6917.89,95.438,540.551,538.959,0.0
53700.0,STARLINK-4725,PAYLOAD,2023-05-17 09:39:30,15.08838355,0.0001126,53.2151,175.4181,89.2972,270.8149,-1.9317e-05,-5.95e-06,0.0,0 STARLINK-4725,1 53700U 22107A   23137.40243164 -.00000595  00000-0 -19317-4 0  9993,2 53700  53.2151 175.4181 0001126  89.2972 270.8149 15.08838355 39029,6917.885,95.438,540.529,538.971,0.0
53700.0,STARLINK-4725,PAYLOAD,2023-05-17 19:11:48,15.08838315,0.0001122,53.2151,173.6341,86.5213,273.5907,-7.3634e-06,-4.05e-06,0.0,0 STARLINK-4725,1 53700U 22107A   23137.79987146 -.00000405  00000-0 -73634-5 0  9993,2 53700  53.2151 173.6341 0001122  86.5213 273.5907 15.08838315 39838,6917.886,95.438,540.527,538.974,0.0
53700.0,STARLINK-4725,PAYLOAD,2023-05-18 11:05:40,15.08834006,0.0001076,53.2154,170.6614,87.8437,272.2679,2.1437e-06,-2.54e-06,0.0,0 STARLINK-4725,1 53700U 22107A   23138.46227557 -.00000254  00000-0  21437-5 0  9996,2 53700  53.2154 170.6614 0001076  87.8437 272.2679 15.08834006 39184,6917.899,95.438,540.508,539.019,0.0
53700.0,STARLINK-4725,PAYLOAD,2023-05-18 19:02:36,15.08836868,0.0001077,53.2155,169.1748,87.2715,272.84,2.0477e-05,3.8e-07,0.0,0 STARLINK-4725,1 53700U 22107A   23138.79347374  .00000038  00000-0  20477-4 0  9993,2 53700  53.2155 169.1748 0001077  87.2715 272.8400 15.08836868 39984,6917.89,95.438,540.5,539.01,0.0
53700.0,STARLINK-4725,PAYLOAD,2023-05-19 02:59:31,15.08839909,0.0001019,53.2152,167.6872,86.1806,273.9303,3.7425e-05,3.08e-06,0.0,0 STARLINK-4725,1 53700U 22107A   23139.12467114  .00000308  00000-0  37425-4 0  9997,2 53700  53.2152 167.6872 0001019  86.1806 273.9303 15.08839909 39283,6917.881,95.438,540.451,539.041,0.0
53700.0,STARLINK-4725,PAYLOAD,2023-05-19 18:53:22,15.08840366,0.0001022,53.2155,164.7136,83.4618,276.6491,1.6351e-05,-2.8e-07,0.0,0 STARLINK-4725,1 53700U 22107A   23139.78707091 -.00000028  00000-0  16351-4 0  9995,2 53700  53.2155 164.7136 0001022  83.4618 276.6491 15.08840366 40135,6917.879,95.438,540.451,539.037,0.0
53700.0,STARLINK-4725,PAYLOAD,2023-05-20 09:11:51,15.08839218,0.0001041,53.2154,162.0371,83.4184,276.6926,2.7676e-05,1.53e-06,0.0,0 STARLINK-4725,1 53700U 22107A   23140.38323154  .00000153  00000-0  27676-4 0  9997,2 53700  53.2154 162.0371 0001041  83.4184 276.6926 15.08839218 39477,6917.883,95.438,540.468,539.028,0.0
53700.0,STARLINK-4725,PAYLOAD,2023-05-20 18:44:09,15.08842832,0.0001063,53.2156,160.2529,82.7603,277.351,3.8959e-05,3.32e-06,0.0,0 STARLINK-4725,1 53700U 22107A   23140.78066819  .00000332  00000-0  38959-4 0  9998,2 53700  53.2156 160.2529 0001063  82.7603 277.3510 15.08842832 40280,6917.872,95.437,540.472,539.001,0.0
53700.0,STARLINK-4725,PAYLOAD,2023-05-21 07:27:14,15.08846638,0.0001157,53.216,157.8742,82.1741,277.9382,2.5987e-05,1.26e-06,0.0,0 STARLINK-4725,1 53700U 22107A   23141.31058458  .00000126  00000-0  25987-4 0  9996,2 53700  53.2160 157.8742 0001157  82.1741 277.9382 15.08846638 39611,6917.86,95.437,540.525,538.925,0.0
53700.0,STARLINK-4725,PAYLOAD,2023-05-21 18:34:56,15.08840975,0.0001159,53.2157,155.793,80.1159,279.9964,-5.836e-06,-3.81e-06,0.0,0 STARLINK-4725,1 53700U 22107A   23141.77426777 -.00000381  00000-0 -58360-5 0  9996,2 53700  53.2157 155.7930 0001159  80.1159 279.9964 15.08840975 40434,6917.877,95.437,540.544,538.941,0.0
53700.0,STARLINK-4725,PAYLOAD,2023-05-22 07:18:02,15.08833731,0.00012,53.216,153.4142,80.8951,279.2177,-4.2715e-05,-9.67e-06,0.0,0 STARLINK-4725,1 53700U 22107A   23142.30419399 -.00000967  00000-0 -42715-4 0  9994,2 53700  53.2160 153.4142 0001200  80.8951 279.2177 15.08833731 40512,6917.9,95.438,540.595,538.934,0.0
